STARLINK-36108          
1 66868U 25281W   25359.75002315 -.01749880  00000+0 -31977-1 0  9995
2 66868  43.0001  43.4813 0001084 269.2513 297.9242 15.51876032  3318
STARLINK-36092          
1 66869U 25281X   25359.75002315 -.01760556  00000+0 -32189-1 0  9995
2 66869  43.0001  43.4764 0001074 266.5183 302.5739 15.51882066  3516
STARLINK-36114          
1 66870U 25281Y   25359.75002315 -.01714174  00000+0 -31272-1 0  9994
2 66870  43.0002  43.4714 0000921 276.6638 294.3488 15.51854604  3371
STARLINK-36095          
1 66871U 25281Z   25359.75002315 -.01700784  00000+0 -31013-1 0  9990
2 66871  43.0004  43.4659 0000761 272.7781 300.1550 15.51843520  3517
STARLINK-36082          
1 66872U 25281AA  25359.75002315 -.01714055  00000+0 -31272-1 0  9994
2 66872  43.0002  43.4613 0001029 265.5338 309.3143 15.51851533  3378
STARLINK-36128          
1 66873U 25281AB  25359.75002315 -.01717919  00000+0 -31352-1 0  9996
2 66873  43.0004  43.4462 0000878 271.3485 309.2515 15.51851791  3516
STARLINK-36129          
1 66874U 25281AC  25359.75002315 -.01723393  00000+0 -31456-1 0  9995
2 66874  43.0004  43.4563 0000966 277.3141 299.4468 15.51857954  3516
STARLINK-36053          
1 66875U 25281AD  25359.75002315 -.01717326  00000+0 -31342-1 0  9999
2 66875  43.0003  43.4406 0000885 272.0127 310.5059 15.51849898  3517
STARLINK-35702          
1 66876U 25281AE  25359.75002315 -.01719941  00000+0 -31391-1 0  9999
2 66876  43.0003  43.4514 0000960 277.4629 301.2185 15.51853169  3511
ZQ-3 R/B                
1 66877U 25282A   25359.24019110  .00979538  79360-5  16487-3 0  9995
2 66877  56.9492   8.8930 0673336 242.0471 111.0851 14.85076412  3230
STARLINK-35866          
1 66878U 25283A   25359.75002315 -.01988667  00000+0 -27868-1 0  9990
2 66878  53.1598   9.0311 0001023  86.9565 275.3834 15.59650207  4520
STARLINK-35749          
1 66879U 25283B   25359.75002315 -.01996039  00000+0 -27981-1 0  9999
2 66879  53.1598   9.0229 0001023  80.4333 285.7373 15.59654719  4526
