CCSDS_OMM_VERS = 2.0
CREATION_DATE  = 
ORIGINATOR     = 

OBJECT_NAME    = STARLINK-36108
OBJECT_ID      = 2025-281W
CENTER_NAME    = EARTH
REF_FRAME      = TEME
TIME_SYSTEM    = UTC
MEAN_ELEMENT_THEORY = SGP/SGP4

EPOCH          = 2025-12-25T18:00:02.000160
MEAN_MOTION    = 15.51876032
ECCENTRICITY   = .0001084
INCLINATION    = 43.0001
RA_OF_ASC_NODE = 43.4813
ARG_OF_PERICENTER = 269.2513
MEAN_ANOMALY   = 297.9242

EPHEMERIS_TYPE = 0
CLASSIFICATION_TYPE = U
NORAD_CAT_ID   = 66868
ELEMENT_SET_NO = 999
REV_AT_EPOCH   = 331
BSTAR          = -.31977E-1
MEAN_MOTION_DOT = -.174988E-1
MEAN_MOTION_DDOT = 0

CCSDS_OMM_VERS = 2.0
CREATION_DATE  = 
ORIGINATOR     = 

OBJECT_NAME    = STARLINK-36092
OBJECT_ID      = 2025-281X
CENTER_NAME    = EARTH
REF_FRAME      = TEME
TIME_SYSTEM    = UTC
MEAN_ELEMENT_THEORY = SGP/SGP4

EPOCH          = 2025-12-25T18:00:02.000160
MEAN_MOTION    = 15.51882066
ECCENTRICITY   = .0001074
INCLINATION    = 43.0001
RA_OF_ASC_NODE = 43.4764
ARG_OF_PERICENTER = 266.5183
MEAN_ANOMALY   = 302.5739

EPHEMERIS_TYPE = 0
CLASSIFICATION_TYPE = U
NORAD_CAT_ID   = 66869
ELEMENT_SET_NO = 999
REV_AT_EPOCH   = 351
BSTAR          = -.32189E-1
MEAN_MOTION_DOT = -.1760556E-1
MEAN_MOTION_DDOT = 0

CCSDS_OMM_VERS = 2.0
CREATION_DATE  = 
ORIGINATOR     = 

OBJECT_NAME    = STARLINK-36114
OBJECT_ID      = 2025-281Y
CENTER_NAME    = EARTH
REF_FRAME      = TEME
TIME_SYSTEM    = UTC
MEAN_ELEMENT_THEORY = SGP/SGP4

EPOCH          = 2025-12-25T18:00:02.000160
MEAN_MOTION    = 15.51854604
ECCENTRICITY   = .0000921
INCLINATION    = 43.0002
RA_OF_ASC_NODE = 43.4714
ARG_OF_PERICENTER = 276.6638
MEAN_ANOMALY   = 294.3488

EPHEMERIS_TYPE = 0
CLASSIFICATION_TYPE = U
NORAD_CAT_ID   = 66870
ELEMENT_SET_NO = 999
REV_AT_EPOCH   = 337
BSTAR          = -.31272E-1
MEAN_MOTION_DOT = -.1714174E-1
MEAN_MOTION_DDOT = 0

CCSDS_OMM_VERS = 2.0
CREATION_DATE  = 
ORIGINATOR     = 

OBJECT_NAME    = STARLINK-36095
OBJECT_ID      = 2025-281Z
CENTER_NAME    = EARTH
REF_FRAME      = TEME
TIME_SYSTEM    = UTC
MEAN_ELEMENT_THEORY = SGP/SGP4

EPOCH          = 2025-12-25T18:00:02.000160
MEAN_MOTION    = 15.51843520
ECCENTRICITY   = .0000761
INCLINATION    = 43.0004
RA_OF_ASC_NODE = 43.4659
ARG_OF_PERICENTER = 272.7781
MEAN_ANOMALY   = 300.1550

EPHEMERIS_TYPE = 0
CLASSIFICATION_TYPE = U
NORAD_CAT_ID   = 66871
ELEMENT_SET_NO = 999
REV_AT_EPOCH   = 351
BSTAR          = -.31013E-1
MEAN_MOTION_DOT = -.1700784E-1
MEAN_MOTION_DDOT = 0

CCSDS_OMM_VERS = 2.0
CREATION_DATE  = 
ORIGINATOR     = 

OBJECT_NAME    = STARLINK-36082
OBJECT_ID      = 2025-281AA
CENTER_NAME    = EARTH
REF_FRAME      = TEME
TIME_SYSTEM    = UTC
MEAN_ELEMENT_THEORY = SGP/SGP4

EPOCH          = 2025-12-25T18:00:02.000160
MEAN_MOTION    = 15.51851533
ECCENTRICITY   = .0001029
INCLINATION    = 43.0002
RA_OF_ASC_NODE = 43.4613
ARG_OF_PERICENTER = 265.5338
MEAN_ANOMALY   = 309.3143

EPHEMERIS_TYPE = 0
CLASSIFICATION_TYPE = U
NORAD_CAT_ID   = 66872
ELEMENT_SET_NO = 999
REV_AT_EPOCH   = 337
BSTAR          = -.31272E-1
MEAN_MOTION_DOT = -.1714055E-1
MEAN_MOTION_DDOT = 0

CCSDS_OMM_VERS = 2.0
CREATION_DATE  = 
ORIGINATOR     = 

OBJECT_NAME    = STARLINK-36128
OBJECT_ID      = 2025-281AB
CENTER_NAME    = EARTH
REF_FRAME      = TEME
TIME_SYSTEM    = UTC
MEAN_ELEMENT_THEORY = SGP/SGP4

EPOCH          = 2025-12-25T18:00:02.000160
MEAN_MOTION    = 15.51851791
ECCENTRICITY   = .0000878
INCLINATION    = 43.0004
RA_OF_ASC_NODE = 43.4462
ARG_OF_PERICENTER = 271.3485
MEAN_ANOMALY   = 309.2515

EPHEMERIS_TYPE = 0
CLASSIFICATION_TYPE = U
NORAD_CAT_ID   = 66873
ELEMENT_SET_NO = 999
REV_AT_EPOCH   = 351
BSTAR          = -.31352E-1
MEAN_MOTION_DOT = -.1717919E-1
MEAN_MOTION_DDOT = 0

CCSDS_OMM_VERS = 2.0
CREATION_DATE  = 
ORIGINATOR     = 

OBJECT_NAME    = STARLINK-36129
OBJECT_ID      = 2025-281AC
CENTER_NAME    = EARTH
REF_FRAME      = TEME
TIME_SYSTEM    = UTC
MEAN_ELEMENT_THEORY = SGP/SGP4

EPOCH          = 2025-12-25T18:00:02.000160
MEAN_MOTION    = 15.51857954
ECCENTRICITY   = .0000966
INCLINATION    = 43.0004
RA_OF_ASC_NODE = 43.4563
ARG_OF_PERICENTER = 277.3141
MEAN_ANOMALY   = 299.4468

EPHEMERIS_TYPE = 0
CLASSIFICATION_TYPE = U
NORAD_CAT_ID   = 66874
ELEMENT_SET_NO = 999
REV_AT_EPOCH   = 351
BSTAR          = -.31456E-1
MEAN_MOTION_DOT = -.1723393E-1
MEAN_MOTION_DDOT = 0

CCSDS_OMM_VERS = 2.0
CREATION_DATE  = 
ORIGINATOR     = 

OBJECT_NAME    = STARLINK-36053
OBJECT_ID      = 2025-281AD
CENTER_NAME    = EARTH
REF_FRAME      = TEME
TIME_SYSTEM    = UTC
MEAN_ELEMENT_THEORY = SGP/SGP4

EPOCH          = 2025-12-25T18:00:02.000160
MEAN_MOTION    = 15.51849898
ECCENTRICITY   = .0000885
INCLINATION    = 43.0003
RA_OF_ASC_NODE = 43.4406
ARG_OF_PERICENTER = 272.0127
MEAN_ANOMALY   = 310.5059

EPHEMERIS_TYPE = 0
CLASSIFICATION_TYPE = U
NORAD_CAT_ID   = 66875
ELEMENT_SET_NO = 999
REV_AT_EPOCH   = 351
BSTAR          = -.31342E-1
MEAN_MOTION_DOT = -.1717326E-1
MEAN_MOTION_DDOT = 0

CCSDS_OMM_VERS = 2.0
CREATION_DATE  = 
ORIGINATOR     = 

OBJECT_NAME    = STARLINK-35702
OBJECT_ID      = 2025-281AE
CENTER_NAME    = EARTH
REF_FRAME      = TEME
TIME_SYSTEM    = UTC
MEAN_ELEMENT_THEORY = SGP/SGP4

EPOCH          = 2025-12-25T18:00:02.000160
MEAN_MOTION    = 15.51853169
ECCENTRICITY   = .000096
INCLINATION    = 43.0003
RA_OF_ASC_NODE = 43.4514
ARG_OF_PERICENTER = 277.4629
MEAN_ANOMALY   = 301.2185

EPHEMERIS_TYPE = 0
CLASSIFICATION_TYPE = U
NORAD_CAT_ID   = 66876
ELEMENT_SET_NO = 999
REV_AT_EPOCH   = 351
BSTAR          = -.31391E-1
MEAN_MOTION_DOT = -.1719941E-1
MEAN_MOTION_DDOT = 0

CCSDS_OMM_VERS = 2.0
CREATION_DATE  = 
ORIGINATOR     = 

OBJECT_NAME    = ZQ-3 R/B
OBJECT_ID      = 2025-282A
CENTER_NAME    = EARTH
REF_FRAME      = TEME
TIME_SYSTEM    = UTC
MEAN_ELEMENT_THEORY = SGP/SGP4

EPOCH          = 2025-12-25T05:45:52.511040
MEAN_MOTION    = 14.85076412
ECCENTRICITY   = .0673336
INCLINATION    = 56.9492
RA_OF_ASC_NODE = 8.8930
ARG_OF_PERICENTER = 242.0471
MEAN_ANOMALY   = 111.0851

EPHEMERIS_TYPE = 0
CLASSIFICATION_TYPE = U
NORAD_CAT_ID   = 66877
ELEMENT_SET_NO = 999
REV_AT_EPOCH   = 323
BSTAR          = .16487E-3
MEAN_MOTION_DOT = .979538E-2
MEAN_MOTION_DDOT = .7936E-5

CCSDS_OMM_VERS = 2.0
CREATION_DATE  = 
ORIGINATOR     = 

OBJECT_NAME    = STARLINK-35866
OBJECT_ID      = 2025-283A
CENTER_NAME    = EARTH
REF_FRAME      = TEME
TIME_SYSTEM    = UTC
MEAN_ELEMENT_THEORY = SGP/SGP4

EPOCH          = 2025-12-25T18:00:02.000160
MEAN_MOTION    = 15.59650207
ECCENTRICITY   = .0001023
INCLINATION    = 53.1598
RA_OF_ASC_NODE = 9.0311
ARG_OF_PERICENTER = 86.9565
MEAN_ANOMALY   = 275.3834

EPHEMERIS_TYPE = 0
CLASSIFICATION_TYPE = U
NORAD_CAT_ID   = 66878
ELEMENT_SET_NO = 999
REV_AT_EPOCH   = 452
BSTAR          = -.27868E-1
MEAN_MOTION_DOT = -.1988667E-1
MEAN_MOTION_DDOT = 0

CCSDS_OMM_VERS = 2.0
CREATION_DATE  = 
ORIGINATOR     = 

OBJECT_NAME    = STARLINK-35749
OBJECT_ID      = 2025-283B
CENTER_NAME    = EARTH
REF_FRAME      = TEME
TIME_SYSTEM    = UTC
MEAN_ELEMENT_THEORY = SGP/SGP4

EPOCH          = 2025-12-25T18:00:02.000160
MEAN_MOTION    = 15.59654719
ECCENTRICITY   = .0001023
INCLINATION    = 53.1598
RA_OF_ASC_NODE = 9.0229
ARG_OF_PERICENTER = 80.4333
MEAN_ANOMALY   = 285.7373

EPHEMERIS_TYPE = 0
CLASSIFICATION_TYPE = U
NORAD_CAT_ID   = 66879
ELEMENT_SET_NO = 999
REV_AT_EPOCH   = 452
BSTAR          = -.27981E-1
MEAN_MOTION_DOT = -.1996039E-1
MEAN_MOTION_DDOT = 0

